OBJECT_NAME,OBJECT_ID,EPOCH,MEAN_MOTION,ECCENTRICITY,INCLINATION,RA_OF_ASC_NODE,ARG_OF_PERICENTER,MEAN_ANOMALY,EPHEMERIS_TYPE,CLASSIFICATION_TYPE,NORAD_CAT_ID,ELEMENT_SET_NO,REV_AT_EPOCH,BSTAR,MEAN_MOTION_DOT,MEAN_MOTION_DDOT
FENGYUN 3D,2017-072A,2026-06-06T22:17:03.164640,14.19736578,.00026557,99.0127,132.1661,77.9367,282.2106,0,U,43010,999,44353,.3507677E-5,-.39E-6,0
NOAA 20 (JPSS-1),2017-073A,2026-06-06T22:07:21.449856,14.19509863,.00005245,98.7769,97.4758,39.0556,321.0657,0,U,43013,999,44301,.56151209E-4,.74E-6,0
GOES 17,2018-022A,2026-06-06T21:36:12.042432,1.00272493,.00006909,0.9103,85.8849,7.1097,36.8795,0,U,43226,999,3032,0,-.169E-5,0
SENTINEL-3B,2018-039A,2026-06-06T22:49:04.204704,14.26738808,.00008941,98.6250,225.6295,77.0075,283.1205,0,U,43437,999,42266,.62742231E-4,.108E-5,0
FENGYUN 2H,2018-050A,2026-06-06T23:02:09.726720,1.00271640,.00014705,3.0045,79.1916,125.8792,115.2960,0,U,43491,999,2933,0,-.117E-5,0
METOP-C,2018-087A,2026-06-06T22:22:26.553792,14.21509399,.00013754,98.6647,217.7229,140.6434,219.4844,0,U,43689,999,39337,.69208802E-4,.108E-5,0
GEO-KOMPSAT-2A,2018-100A,2026-06-06T22:38:15.093600,1.00271819,.0002399,0.0495,134.6777,308.4825,280.0245,0,U,43823,999,2752,0,-.33E-5,0
METEOR-M2 2,2019-038A,2026-06-06T22:02:36.463776,14.24363730,.00023325,98.9147,145.0528,63.6304,296.5113,0,U,44387,999,35983,.1043512E-3,.195E-5,0
ARKTIKA-M 1,2021-016A,2026-06-02T00:56:25.095840,2.00628509,.72832396,63.2379,59.8266,269.8643,14.6915,0,U,47719,999,3848,0,-.2E-5,0
FENGYUN 3E,2021-062A,2026-06-06T21:55:28.163424,14.19904213,.00027046,98.7496,161.4364,102.8649,257.2829,0,U,49008,999,25512,.14651726E-3,.267E-5,0
GOES 18,2022-021A,2026-06-06T17:57:12.845376,1.00272099,.00006169,0.0388,141.8689,351.6439,253.9544,0,U,51850,999,648,0,.11E-5,0
NOAA 21 (JPSS-2),2022-150A,2026-06-06T21:13:46.693344,14.19563698,.00010654,98.7058,96.8469,180.0401,180.0775,0,U,54234,999,18508,.55427083E-4,.73E-6,0
METEOSAT-12 (MTG-I1),2022-170C,2026-06-06T22:01:34.737024,1.00271572,.00034761,0.7266,21.2061,70.4405,133.6524,0,U,54743,999,1287,0,.5E-7,0
TIANMU-1 03,2023-039A,2026-06-06T21:29:56.529888,15.46992232,.00040639,97.5238,331.4647,124.3454,235.8181,0,U,55973,999,17924,.37834463E-3,.19026E-3,0
TIANMU-1 04,2023-039B,2026-06-06T22:53:34.375776,15.47580477,.00047096,97.5174,330.6783,121.6980,238.4729,0,U,55974,999,17926,.36175569E-3,.18563E-3,0
TIANMU-1 05,2023-039C,2026-06-06T22:34:41.028960,15.46919637,.00037031,97.5218,331.1303,139.4734,220.6792,0,U,55975,999,17923,.34061961E-3,.17072E-3,0
TIANMU-1 06,2023-039D,2026-06-06T22:57:32.532192,15.47488207,.00039769,97.5227,331.7721,135.7008,224.4561,0,U,55976,999,17926,.35700941E-3,.18257E-3,0
FENGYUN 3G,2023-055A,2026-06-06T22:32:57.225408,15.54350511,.00055247,49.9934,38.8434,157.1735,202.9479,0,U,56232,999,17841,.43197364E-3,.28512E-3,0
METEOR-M2 3,2023-091A,2026-06-06T23:32:12.245856,14.24045987,.00037646,98.6086,213.1674,182.9588,177.1569,0,U,57166,999,15306,.20807706E-4,.5E-7,0
TIANMU-1 07,2023-101A,2026-06-06T23:04:07.224672,15.29688313,.00034789,97.2595,208.8651,142.8704,217.2778,0,U,57399,999,16008,.26014292E-3,.741E-4,0
TIANMU-1 08,2023-101B,2026-06-06T08:08:20.728320,15.29687744,.00049864,97.2582,208.0295,142.0036,218.1557,0,U,57400,999,15998,.31505615E-3,.8993E-4,0
TIANMU-1 09,2023-101C,2026-06-06T21:52:31.425312,15.29720861,.00038336,97.2541,208.0098,150.8980,209.2475,0,U,57401,999,16007,.26747438E-3,.7629E-4,0
TIANMU-1 10,2023-101D,2026-06-06T22:39:50.538816,15.29691597,.00054306,97.2621,209.0820,153.6509,206.5009,0,U,57402,999,16007,.26607493E-3,.7583E-4,0
FENGYUN 3F,2023-111A,2026-06-06T23:14:07.429920,14.19937379,.0001572,98.6836,228.1670,100.3515,259.7839,0,U,57490,999,14741,.42657699E-4,.47E-6,0
ARKTIKA-M 2,2023-198A,2026-06-03T07:17:21.587712,2.00591941,.68985494,63.2209,155.9142,267.4684,18.7857,0,U,58584,999,1804,0,.15E-5,0
TIANMU-1 11,2023-205A,2026-06-06T23:04:34.273920,15.26888639,.00100852,97.3451,179.6796,49.8954,310.3167,0,U,58645,999,13596,.24425034E-3,.6387E-4,0
TIANMU-1 12,2023-205B,2026-06-06T22:21:32.182272,15.26850094,.00079907,97.3440,179.4080,37.6217,322.5579,0,U,58646,999,13594,.26571839E-3,.6943E-4,0
TIANMU-1 13,2023-205C,2026-06-06T21:32:05.259840,15.26704533,.00071774,97.3468,179.6453,19.0800,341.0706,0,U,58647,999,13593,.26308256E-3,.6842E-4,0
TIANMU-1 14,2023-205D,2026-06-06T22:45:35.807040,15.26749422,.00081418,97.3404,178.8854,22.3096,337.8495,0,U,58648,999,13594,.25918733E-3,.675E-4,0
TIANMU-1 19,2023-208A,2026-06-06T23:07:37.674336,15.31418978,.00047028,97.4493,274.2134,9.7239,350.4093,0,U,58660,999,13576,.30969938E-3,.9323E-4,0
