FENGYUN 3D              
1 43010U 17072A   26157.92850885 -.00000039  00000+0  35077-5 0  9990
2 43010  99.0127 132.1661 0002655  77.9367 282.2106 14.19736578443536
NOAA 20 (JPSS-1)        
1 43013U 17073A   26157.92177604  .00000074  00000+0  56151-4 0  9998
2 43013  98.7769  97.4758 0000524  39.0556 321.0657 14.19509863443010
GOES 17                 
1 43226U 18022A   26157.90013938 -.00000169  00000+0  00000+0 0  9999
2 43226   0.9103  85.8849 0000690   7.1097  36.8795  1.00272493 30327
SENTINEL-3B             
1 43437U 18039A   26157.95074311  .00000108  00000+0  62742-4 0  9996
2 43437  98.6250 225.6295 0000894  77.0075 283.1205 14.26738808422669
FENGYUN 2H              
1 43491U 18050A   26157.95983480 -.00000117  00000+0  00000+0 0  9990
2 43491   3.0045  79.1916 0001470 125.8792 115.2960  1.00271640 29336
METOP-C                 
1 43689U 18087A   26157.93225178  .00000108  00000+0  69209-4 0  9990
2 43689  98.6647 217.7229 0001375 140.6434 219.4844 14.21509399393370
GEO-KOMPSAT-2A          
1 43823U 18100A   26157.94323025 -.00000330  00000+0  00000+0 0  9994
2 43823   0.0495 134.6777 0002399 308.4825 280.0245  1.00271819 27524
METEOR-M2 2             
1 44387U 19038A   26157.91847759  .00000195  00000+0  10435-3 0  9998
2 44387  98.9147 145.0528 0002332  63.6304 296.5113 14.24363730359831
ARKTIKA-M 1             
1 47719U 21016A   26153.03917935 -.00000200  00000+0  00000+0 0  9993
2 47719  63.2379  59.8266 7283239 269.8643  14.6915  2.00628509 38489
FENGYUN 3E              
1 49008U 21062A   26157.91352041  .00000267  00000+0  14652-3 0  9993
2 49008  98.7496 161.4364 0002704 102.8649 257.2829 14.19904213255128
GOES 18                 
1 51850U 22021A   26157.74806534  .00000110  00000+0  00000+0 0  9994
2 51850   0.0388 141.8689 0000616 351.6439 253.9544  1.00272099  6481
NOAA 21 (JPSS-2)        
1 54234U 22150A   26157.88456821  .00000073  00000+0  55427-4 0  9997
2 54234  98.7058  96.8469 0001065 180.0401 180.0775 14.19563698185087
METEOSAT-12 (MTG-I1)    
1 54743U 22170C   26157.91776316  .00000005  00000+0  00000+0 0  9999
2 54743   0.7266  21.2061 0003476  70.4405 133.6524  1.00271572 12875
TIANMU-1 03             
1 55973U 23039A   26157.89579317  .00019026  00000+0  37834-3 0  9991
2 55973  97.5238 331.4647 0004063 124.3454 235.8181 15.46992232179243
TIANMU-1 04             
1 55974U 23039B   26157.95387009  .00018563  00000+0  36176-3 0  9997
2 55974  97.5174 330.6783 0004709 121.6980 238.4729 15.47580477179260
TIANMU-1 05             
1 55975U 23039C   26157.94075265  .00017072  00000+0  34062-3 0  9991
2 55975  97.5218 331.1303 0003703 139.4734 220.6792 15.46919637179234
TIANMU-1 06             
1 55976U 23039D   26157.95662653  .00018257  00000+0  35701-3 0  9993
2 55976  97.5227 331.7721 0003976 135.7008 224.4561 15.47488207179264
FENGYUN 3G              
1 56232U 23055A   26157.93955122  .00028512  00000+0  43197-3 0  9994
2 56232  49.9934  38.8434 0005524 157.1735 202.9479 15.54350511178417
METEOR-M2 3             
1 57166U 23091A   26157.98069729  .00000005  00000+0  20808-4 0  9997
2 57166  98.6086 213.1674 0003764 182.9588 177.1569 14.24045987153064
TIANMU-1 07             
1 57399U 23101A   26157.96119473  .00007410  00000+0  26014-3 0  9998
2 57399  97.2595 208.8651 0003478 142.8704 217.2778 15.29688313160085
TIANMU-1 08             
1 57400U 23101B   26157.33912880  .00008993  00000+0  31506-3 0  9994
2 57400  97.2582 208.0295 0004986 142.0036 218.1557 15.29687744159984
TIANMU-1 09             
1 57401U 23101C   26157.91147483  .00007629  00000+0  26747-3 0  9994
2 57401  97.2541 208.0098 0003833 150.8980 209.2475 15.29720861160076
TIANMU-1 10             
1 57402U 23101D   26157.94433494  .00007583  00000+0  26607-3 0  9992
2 57402  97.2621 209.0820 0005430 153.6509 206.5009 15.29691597160079
FENGYUN 3F              
1 57490U 23111A   26157.96814155  .00000047  00000+0  42658-4 0  9992
2 57490  98.6836 228.1670 0001572 100.3515 259.7839 14.19937379147416
ARKTIKA-M 2             
1 58584U 23198A   26154.30372208  .00000150  00000+0  00000+0 0  9990
2 58584  63.2209 155.9142 6898549 267.4684  18.7857  2.00591941 18047
TIANMU-1 11             
1 58645U 23205A   26157.96150780  .00006387  00000+0  24425-3 0  9990
2 58645  97.3451 179.6796 0010085  49.8954 310.3167 15.26888639135968
TIANMU-1 12             
1 58646U 23205B   26157.93162248  .00006943  00000+0  26572-3 0  9993
2 58646  97.3440 179.4080 0007990  37.6217 322.5579 15.26850094135943
TIANMU-1 13             
1 58647U 23205C   26157.89728310  .00006842  00000+0  26308-3 0  9992
2 58647  97.3468 179.6453 0007177  19.0800 341.0706 15.26704533135932
TIANMU-1 14             
1 58648U 23205D   26157.94833110  .00006750  00000+0  25919-3 0  9999
2 58648  97.3404 178.8854 0008141  22.3096 337.8495 15.26749422135940
TIANMU-1 19             
1 58660U 23208A   26157.96363049  .00009323  00000+0  30970-3 0  9999
2 58660  97.4493 274.2134 0004702   9.7239 350.4093 15.31418978135762
